{
  "norad_id": 64846,
  "name": "STARLINK-34736",
  "history": [
    {
      "epoch": "2026-05-04T13:05:14.213760Z",
      "apogee_km": 551.0541656708629,
      "perigee_km": 547.9353458544192,
      "latitude_deg": -8.37435212942899e-05,
      "longitude_deg": -78.2404130917852,
      "height_km": 552.5485188121786,
      "semi_major_axis_km": 6927.631755762641,
      "eccentricity": 0.0002251,
      "inclination_deg": 97.5349,
      "raan_deg": 340.5019,
      "arg_perigee_deg": 89.6437,
      "mean_anomaly_deg": 270.5047,
      "mean_motion_rev_day": 15.05655346
    }
  ]
}